{
  "type": "FeatureCollection",
  "features": [
    {
      "type": "Feature",
      "properties": {
        "norad_id": 38867,
        "name": "INTELSAT 23 (IS-23)",
        "group": "intelsat",
        "lat": -0.022364014167249136,
        "lon": -12.026142115437061,
        "alt_km": 35784.98421861584,
        "timestamp": "2025-12-21T20:41:07.653079+00:00",
        "meta_object_name": "INTELSAT 23 (IS-23)",
        "meta_object_id": "2012-057A",
        "meta_epoch": "2025-12-21T11:13:59.042208",
        "meta_mean_motion": 1.00269242,
        "meta_eccentricity": 6.585e-05,
        "meta_inclination": 0.0169,
        "meta_ra_of_asc_node": 64.9752,
        "meta_arg_of_pericenter": 235.2005,
        "meta_mean_anomaly": 265.6301,
        "meta_ephemeris_type": 0,
        "meta_classification_type": "U",
        "meta_norad_cat_id": 38867,
        "meta_element_set_no": 999,
        "meta_rev_at_epoch": 4817,
        "meta_bstar": 0,
        "meta_mean_motion_dot": -2.62e-06,
        "meta_mean_motion_ddot": 0,
        "tle_line1": "1 38867U 12057A   25355.46804447 -.00000262  00000+0  00000+0 0  9993",
        "tle_line2": "2 38867   0.0169  64.9752 0000658 235.2005 265.6301  1.00269242 48178"
      },
      "geometry": {
        "type": "Point",
        "coordinates": [
          -12.026142115437061,
          -0.022364014167249136
        ]
      }
    },
    {
      "type": "Feature",
      "properties": {
        "norad_id": 39360,
        "name": "FM-6",
        "group": "intelsat",
        "lat": -0.02344087423445983,
        "lon": -75.17087202590784,
        "alt_km": 35788.84006217094,
        "timestamp": "2025-12-21T20:41:07.653090+00:00",
        "meta_object_name": "FM-6",
        "meta_object_id": "2013-058A",
        "meta_epoch": "2025-12-21T10:49:59.562048",
        "meta_mean_motion": 1.00273303,
        "meta_eccentricity": 0.00030477,
        "meta_inclination": 0.0117,
        "meta_ra_of_asc_node": 65.8213,
        "meta_arg_of_pericenter": 114.5077,
        "meta_mean_anomaly": 316.2838,
        "meta_ephemeris_type": 0,
        "meta_classification_type": "U",
        "meta_norad_cat_id": 39360,
        "meta_element_set_no": 999,
        "meta_rev_at_epoch": 4429,
        "meta_bstar": 0,
        "meta_mean_motion_dot": 5e-08,
        "meta_mean_motion_ddot": 0,
        "tle_line1": "1 39360U 13058A   25355.45138382  .00000005  00000+0  00000+0 0  9995",
        "tle_line2": "2 39360   0.0117  65.8213 0003047 114.5077 316.2838  1.00273303 44295"
      },
      "geometry": {
        "type": "Point",
        "coordinates": [
          -75.17087202590784,
          -0.02344087423445983
        ]
      }
    },
    {
      "type": "Feature",
      "properties": {
        "norad_id": 40271,
        "name": "INTELSAT 30 (IS-30)",
        "group": "intelsat",
        "lat": -0.03836486842676524,
        "lon": -54.110385600705854,
        "alt_km": 35791.840044162775,
        "timestamp": "2025-12-21T20:41:07.653100+00:00",
        "meta_object_name": "INTELSAT 30 (IS-30)",
        "meta_object_id": "2014-062A",
        "meta_epoch": "2025-12-21T02:28:25.779360",
        "meta_mean_motion": 1.00271873,
        "meta_eccentricity": 0.00016539,
        "meta_inclination": 0.0153,
        "meta_ra_of_asc_node": 22.7027,
        "meta_arg_of_pericenter": 68.3073,
        "meta_mean_anomaly": 300.9758,
        "meta_ephemeris_type": 0,
        "meta_classification_type": "U",
        "meta_norad_cat_id": 40271,
        "meta_element_set_no": 999,
        "meta_rev_at_epoch": 500,
        "meta_bstar": 0,
        "meta_mean_motion_dot": -1.28e-06,
        "meta_mean_motion_ddot": 0,
        "tle_line1": "1 40271U 14062A   25355.10307615 -.00000128  00000+0  00000+0 0  9990",
        "tle_line2": "2 40271   0.0153  22.7027 0001653  68.3073 300.9758  1.00271873  5003"
      },
      "geometry": {
        "type": "Point",
        "coordinates": [
          -54.110385600705854,
          -0.03836486842676524
        ]
      }
    },
    {
      "type": "Feature",
      "properties": {
        "norad_id": 40333,
        "name": "DIRECTV 14",
        "group": "intelsat",
        "lat": -0.02452679449461653,
        "lon": -58.27152960846074,
        "alt_km": 35787.548304417694,
        "timestamp": "2025-12-21T20:41:07.653111+00:00",
        "meta_object_name": "DIRECTV 14",
        "meta_object_id": "2014-078B",
        "meta_epoch": "2025-12-21T11:54:52.391808",
        "meta_mean_motion": 1.00270511,
        "meta_eccentricity": 2.604e-05,
        "meta_inclination": 0.0008,
        "meta_ra_of_asc_node": 6.7961,
        "meta_arg_of_pericenter": 119.3735,
        "meta_mean_anomaly": 43.6445,
        "meta_ephemeris_type": 0,
        "meta_classification_type": "U",
        "meta_norad_cat_id": 40333,
        "meta_element_set_no": 999,
        "meta_rev_at_epoch": 4026,
        "meta_bstar": 0,
        "meta_mean_motion_dot": -1.03e-06,
        "meta_mean_motion_ddot": 0,
        "tle_line1": "1 40333U 14078B   25355.49643972 -.00000103  00000+0  00000+0 0  9990",
        "tle_line2": "2 40333   0.0008   6.7961 0000260 119.3735  43.6445  1.00270511 40264"
      },
      "geometry": {
        "type": "Point",
        "coordinates": [
          -58.27152960846074,
          -0.02452679449461653
        ]
      }
    },
    {
      "type": "Feature",
      "properties": {
        "norad_id": 40663,
        "name": "DIRECTV 15",
        "group": "intelsat",
        "lat": -0.04917287418427716,
        "lon": -61.932608873001,
        "alt_km": 35787.98698825093,
        "timestamp": "2025-12-21T20:41:07.653121+00:00",
        "meta_object_name": "DIRECTV 15",
        "meta_object_id": "2015-026A",
        "meta_epoch": "2025-12-21T08:19:00.875424",
        "meta_mean_motion": 1.00269643,
        "meta_eccentricity": 3.298e-05,
        "meta_inclination": 0.0248,
        "meta_ra_of_asc_node": 19.5507,
        "meta_arg_of_pericenter": 120.1507,
        "meta_mean_anomaly": 332.3403,
        "meta_ephemeris_type": 0,
        "meta_classification_type": "U",
        "meta_norad_cat_id": 40663,
        "meta_element_set_no": 999,
        "meta_rev_at_epoch": 3868,
        "meta_bstar": 0,
        "meta_mean_motion_dot": 0,
        "meta_mean_motion_ddot": 0,
        "tle_line1": "1 40663U 15026A   25355.34653791  .00000000  00000+0  00000+0 0  9999",
        "tle_line2": "2 40663   0.0248  19.5507 0000329 120.1507 332.3403  1.00269643 38686"
      },
      "geometry": {
        "type": "Point",
        "coordinates": [
          -61.932608873001,
          -0.04917287418427716
        ]
      }
    },
    {
      "type": "Feature",
      "properties": {
        "norad_id": 40664,
        "name": "SKY MEXICO-1",
        "group": "intelsat",
        "lat": -0.024015928703447275,
        "lon": -37.795260445538545,
        "alt_km": 35778.03345520696,
        "timestamp": "2025-12-21T20:41:07.653132+00:00",
        "meta_object_name": "SKY MEXICO-1",
        "meta_object_id": "2015-026B",
        "meta_epoch": "2025-12-21T13:01:36.890112",
        "meta_mean_motion": 1.00271501,
        "meta_eccentricity": 0.00023614,
        "meta_inclination": 0.015,
        "meta_ra_of_asc_node": 354.63,
        "meta_arg_of_pericenter": 292.4188,
        "meta_mean_anomaly": 279.956,
        "meta_ephemeris_type": 0,
        "meta_classification_type": "U",
        "meta_norad_cat_id": 40664,
        "meta_element_set_no": 999,
        "meta_rev_at_epoch": 3867,
        "meta_bstar": 0,
        "meta_mean_motion_dot": -2.12e-06,
        "meta_mean_motion_ddot": 0,
        "tle_line1": "1 40664U 15026B   25355.54278808 -.00000212  00000+0  00000+0 0  9990",
        "tle_line2": "2 40664   0.0150 354.6300 0002361 292.4188 279.9560  1.00271501 38674"
      },
      "geometry": {
        "type": "Point",
        "coordinates": [
          -37.795260445538545,
          -0.024015928703447275
        ]
      }
    },
    {
      "type": "Feature",
      "properties": {
        "norad_id": 40874,
        "name": "INTELSAT 34 (IS-34)",
        "group": "intelsat",
        "lat": 0.0023214074342674073,
        "lon": -14.553538878158994,
        "alt_km": 35788.73347135105,
        "timestamp": "2025-12-21T20:41:07.653143+00:00",
        "meta_object_name": "INTELSAT 34 (IS-34)",
        "meta_object_id": "2015-039A",
        "meta_epoch": "2025-12-21T04:31:38.456256",
        "meta_mean_motion": 1.00270737,
        "meta_eccentricity": 5.67e-05,
        "meta_inclination": 0.0114,
        "meta_ra_of_asc_node": 322.9713,
        "meta_arg_of_pericenter": 185.716,
        "meta_mean_anomaly": 313.7366,
        "meta_ephemeris_type": 0,
        "meta_classification_type": "U",
        "meta_norad_cat_id": 40874,
        "meta_element_set_no": 999,
        "meta_rev_at_epoch": 3784,
        "meta_bstar": 0,
        "meta_mean_motion_dot": -2.62e-06,
        "meta_mean_motion_ddot": 0,
        "tle_line1": "1 40874U 15039A   25355.18863954 -.00000262  00000+0  00000+0 0  9994",
        "tle_line2": "2 40874   0.0114 322.9713 0000567 185.7160 313.7366  1.00270737 37842"
      },
      "geometry": {
        "type": "Point",
        "coordinates": [
          -14.553538878158994,
          0.0023214074342674073
        ]
      }
    }
  ]
}